NORAD_CAT_ID,OBJECT_NAME,OBJECT_TYPE,EPOCH,MEAN_MOTION,ECCENTRICITY,INCLINATION,RA_OF_ASC_NODE,ARG_OF_PERICENTER,MEAN_ANOMALY,BSTAR,MEAN_MOTION_DOT,MEAN_MOTION_DDOT,TLE_LINE0,TLE_LINE1,TLE_LINE2,SEMIMAJOR_AXIS,PERIOD,APOGEE,PERIGEE,DECAYED
53436.0,STARLINK-4527,PAYLOAD,2023-06-09 12:37:04,15.08836507,0.0001002,53.2157,291.6689,96.3806,263.73,6.7909e-05,7.93e-06,0.0,0 STARLINK-4527,1 53436U 22097BA  23160.52574401  .00000793  00000-0  67909-4 0  9995,2 53436  53.2157 291.6689 0001002  96.3806 263.7300 15.08836507 47197,6917.891,95.438,540.449,539.063,0.0
53436.0,STARLINK-4527,PAYLOAD,2023-06-10 09:17:05,15.08832,0.0001172,53.2158,287.8039,94.6723,265.4403,3.5534e-05,2.78e-06,0.0,0 STARLINK-4527,1 53436U 22097BA  23161.38687012  .00000278  00000-0  35534-4 0  9990,2 53436  53.2158 287.8039 0001172  94.6723 265.4403 15.08832000 47323,6917.905,95.438,540.581,538.959,0.0
53436.0,STARLINK-4527,PAYLOAD,2023-06-10 12:27:51,15.08835037,0.0001222,53.217,287.2092,101.1299,258.9831,6.136e-05,6.89e-06,0.0,0 STARLINK-4527,1 53436U 22097BA  23161.51934776  .00000689  00000-0  61360-4 0  9999,2 53436  53.2170 287.2092 0001222 101.1299 258.9831 15.08835037 46861,6917.896,95.438,540.606,538.915,0.0
53436.0,STARLINK-4527,PAYLOAD,2023-06-10 14:03:14,15.08839063,0.0001777,53.2174,286.9119,111.8144,248.3037,2.4188e-05,9.7e-07,0.0,0 STARLINK-4527,1 53436U 22097BA  23161.58558659  .00000097  00000-0  24188-4 0  9998,2 53436  53.2174 286.9119 0001777 111.8144 248.3037 15.08839063 47352,6917.883,95.438,540.978,538.519,0.0
53436.0,STARLINK-4527,PAYLOAD,2023-06-11 09:07:52,15.08834302,0.0001187,53.2195,283.3456,96.1199,263.9928,4.2892e-05,3.95e-06,0.0,0 STARLINK-4527,1 53436U 22097BA  23162.38047075  .00000395  00000-0  42892-4 0  9995,2 53436  53.2195 283.3456 0001187  96.1199 263.9928 15.08834302 47476,6917.898,95.438,540.584,538.942,0.0
53436.0,STARLINK-4527,PAYLOAD,2023-06-11 12:18:38,15.08836331,0.0001249,53.2201,282.7513,99.2073,260.9061,4.9871e-05,5.06e-06,0.0,0 STARLINK-4527,1 53436U 22097BA  23162.51294970  .00000506  00000-0  49871-4 0  9996,2 53436  53.2201 282.7513 0001249  99.2073 260.9061 15.08836331 47496,6917.892,95.438,540.621,538.893,0.0
53436.0,STARLINK-4527,PAYLOAD,2023-06-12 01:01:43,15.08840222,0.0001141,53.2187,280.3709,88.1723,271.94,0.00010117,1.323e-05,0.0,0 STARLINK-4527,1 53436U 22097BA  23163.04286580  .00001323  00000-0  10117-3 0  9991,2 53436  53.2187 280.3709 0001141  88.1723 271.9400 15.08840222 47099,6917.88,95.438,540.534,538.955,0.0
53436.0,STARLINK-4527,PAYLOAD,2023-06-12 13:44:48,15.08844257,0.0001115,53.2182,277.9928,83.7328,276.3791,0.0001245,1.694e-05,0.0,0 STARLINK-4527,1 53436U 22097BA  23163.57278228  .00001694  00000-0  12450-3 0  9992,2 53436  53.2182 277.9928 0001115  83.7328 276.3791 15.08844257 47658,6917.867,95.437,540.504,538.961,0.0
53436.0,STARLINK-4527,PAYLOAD,2023-06-13 07:14:03,15.08833416,0.0001092,53.2169,274.7208,83.1746,276.937,6.1243e-05,6.87e-06,0.0,0 STARLINK-4527,1 53436U 22097BA  23164.30143013  .00000687  00000-0  61243-4 0  9993,2 53436  53.2169 274.7208 0001092  83.1746 276.9370 15.08833416 47284,6917.901,95.438,540.521,539.01,0.0
53436.0,STARLINK-4527,PAYLOAD,2023-06-14 07:04:50,15.08842726,0.0001089,53.2169,270.261,82.5674,277.5442,3.1384e-05,2.12e-06,0.0,0 STARLINK-4527,1 53436U 22097BA  23165.29502549  .00000212  00000-0  31384-4 0  9992,2 53436  53.2169 270.2610 0001089  82.5674 277.5442 15.08842726 47439,6917.872,95.437,540.49,538.984,0.0
53436.0,STARLINK-4527,PAYLOAD,2023-06-14 16:37:08,15.08850889,0.0001111,53.2166,268.477,76.2875,283.8241,-1.8556e-05,-5.83e-06,0.0,0 STARLINK-4527,1 53436U 22097BA  23165.69246080 -.00000583  00000-0 -18556-4 0  9990,2 53436  53.2166 268.4770 0001111  76.2875 283.8241 15.08850889 47976,6917.847,95.437,540.481,538.944,0.0
53436.0,STARLINK-4527,PAYLOAD,2023-06-15 10:06:23,15.08833519,0.0001124,53.2161,265.2054,84.6184,275.4936,6.1945e-05,6.98e-06,0.0,0 STARLINK-4527,1 53436U 22097BA  23166.42111020  .00000698  00000-0  61945-4 0  9992,2 53436  53.2161 265.2054 0001124  84.6184 275.4936 15.08833519 47600,6917.9,95.438,540.543,538.988,0.0
53436.0,STARLINK-4527,PAYLOAD,2023-06-15 13:17:10,15.08837048,0.0001077,53.2168,264.6109,89.1433,270.9682,8.3254e-05,1.037e-05,0.0,0 STARLINK-4527,1 53436U 22097BA  23166.55358800  .00001037  00000-0  83254-4 0  9990,2 53436  53.2168 264.6109 0001077  89.1433 270.9682 15.08837048 48100,6917.889,95.438,540.499,539.009,0.0
53436.0,STARLINK-4527,PAYLOAD,2023-06-15 16:27:56,15.08840098,0.000105,53.2168,264.015,95.3058,264.8054,6.9049e-05,8.11e-06,0.0,0 STARLINK-4527,1 53436U 22097BA  23166.68606623  .00000811  00000-0  69049-4 0  9998,2 53436  53.2168 264.0150 0001050  95.3058 264.8054 15.08840098 48129,6917.88,95.438,540.471,539.019,0.0
53436.0,STARLINK-4527,PAYLOAD,2023-06-16 13:07:55,15.08852463,9.95e-05,53.2163,260.1497,87.9382,272.1724,0.00017901,2.563e-05,0.0,0 STARLINK-4527,1 53436U 22097BA  23167.54717527  .00002563  00000-0  17901-3 0  9995,2 53436  53.2163 260.1497 0000995  87.9382 272.1724 15.08852463 48258,6917.842,95.437,540.396,539.019,0.0
53436.0,STARLINK-4527,PAYLOAD,2023-06-16 14:43:18,15.08858177,9.15e-05,53.218,259.855,82.7908,277.3188,0.00012452,1.695e-05,0.0,0 STARLINK-4527,1 53436U 22097BA  23167.61341279  .00001695  00000-0  12452-3 0  9991,2 53436  53.2180 259.8550 0000915  82.7908 277.3188 15.08858177 47787,6917.825,95.436,540.323,539.057,0.0
53436.0,STARLINK-4527,PAYLOAD,2023-06-16 16:18:41,15.08869026,0.0001087,53.2165,259.5547,98.8005,261.3111,4.4481e-05,4.21e-06,0.0,0 STARLINK-4527,1 53436U 22097BA  23167.67964596  .00000421  00000-0  44481-4 0  9994,2 53436  53.2165 259.5547 0001087  98.8005 261.3111 15.08869026 48279,6917.792,95.436,540.409,538.905,0.0
53436.0,STARLINK-4527,PAYLOAD,2023-06-16 22:40:16,15.08833667,0.0001715,53.216,258.3633,94.5423,265.5765,-7.0846e-06,-4.01e-06,0.0,0 STARLINK-4527,1 53436U 22097BA  23167.94462964 -.00000401  00000-0 -70846-5 0  9991,2 53436  53.2160 258.3633 0001715  94.5423 265.5765 15.08833667 47836,6917.9,95.438,540.951,538.578,0.0
53436.0,STARLINK-4527,PAYLOAD,2023-06-17 12:58:44,15.0883325,0.0001432,53.2164,255.6888,100.921,259.1943,-5.5693e-05,-1.174e-05,0.0,0 STARLINK-4527,1 53436U 22097BA  23168.54079090 -.00001174  00000-0 -55693-4 0  9992,2 53436  53.2164 255.6888 0001432 100.9210 259.1943 15.08833250 48403,6917.901,95.438,540.757,538.775,0.0
53436.0,STARLINK-4527,PAYLOAD,2023-06-18 04:52:35,15.08836895,0.0001124,53.2168,252.7174,104.6747,255.437,6.0528e-05,6.76e-06,0.0,0 STARLINK-4527,1 53436U 22097BA  23169.20319147  .00000676  00000-0  60528-4 0  9993,2 53436  53.2168 252.7174 0001124 104.6747 255.4370 15.08836895 48026,6917.89,95.438,540.532,538.977,0.0
53436.0,STARLINK-4527,PAYLOAD,2023-06-18 12:49:31,15.08838206,0.0001127,53.217,251.2306,105.9249,254.1867,6.459e-05,7.4e-06,0.0,0 STARLINK-4527,1 53436U 22097BA  23169.53439218  .00000740  00000-0  64590-4 0  9996,2 53436  53.2170 251.2306 0001127 105.9249 254.1867 15.08838206 48557,6917.886,95.438,540.531,538.971,0.0
53436.0,STARLINK-4527,PAYLOAD,2023-06-18 16:00:17,15.08840045,0.0001134,53.2168,250.6357,105.892,254.2197,0.00026304,3.901e-05,0.0,0 STARLINK-4527,1 53436U 22097BA  23169.66687288  .00003901  00000-0  26304-3 0  9994,2 53436  53.2168 250.6357 0001134 105.8920 254.2197 15.08840045 48579,6917.88,95.438,540.53,538.961,0.0
53436.0,STARLINK-4527,PAYLOAD,2023-06-18 23:57:13,15.08839042,0.0001041,53.2157,249.1483,106.357,253.7537,0.00027817,4.142e-05,0.0,0 STARLINK-4527,1 53436U 22097BA  23169.99807454  .00004142  00000-0  27817-3 0  9997,2 53436  53.2157 249.1483 0001041 106.3570 253.7537 15.08839042 48627,6917.883,95.438,540.468,539.028,0.0
53436.0,STARLINK-4527,PAYLOAD,2023-06-19 22:12:37,15.08844115,9.4e-05,53.2144,244.9846,86.5661,273.5438,0.00021227,3.092e-05,0.0,0 STARLINK-4527,1 53436U 22097BA  23170.92543323  .00003092  00000-0  21227-3 0  9996,2 53436  53.2144 244.9846 0000940  86.5661 273.5438 15.08844115 48285,6917.868,95.437,540.383,539.083,0.0
53436.0,STARLINK-4527,PAYLOAD,2023-06-20 10:55:42,15.08837966,0.00011,53.2147,242.6069,84.5436,275.5681,7.1582e-05,8.52e-06,0.0,0 STARLINK-4527,1 53436U 22097BA  23171.45535678  .00000852  00000-0  71582-4 0  9990,2 53436  53.2147 242.6069 0001100  84.5436 275.5681 15.08837966 48847,6917.887,95.438,540.513,538.991,0.0
53436.0,STARLINK-4527,PAYLOAD,2023-06-21 10:46:29,15.08848036,0.0001001,53.2148,238.1454,87.3242,272.7864,0.00016082,2.273e-05,0.0,0 STARLINK-4527,1 53436U 22097BA  23172.44895217  .00002273  00000-0  16082-3 0  9990,2 53436  53.2148 238.1454 0001001  87.3242 272.7864 15.08848036 48990,6917.856,95.437,540.413,539.028,0.0
53436.0,STARLINK-4527,PAYLOAD,2023-06-21 23:29:35,15.08826333,0.0001028,53.2149,235.7671,96.6071,263.5038,0.0006654,0.00010314,0.0,0 STARLINK-4527,1 53436U 22097BA  23172.97888578  .00010314  00000-0  66540-3 0  9999,2 53436  53.2149 235.7671 0001028  96.6071 263.5038 15.08826333 48590,6917.922,95.438,540.498,539.076,0.0
53436.0,STARLINK-4527,PAYLOAD,2023-06-22 10:37:16,15.08840182,9.29e-05,53.215,233.685,87.4409,272.669,0.00012846,1.757e-05,0.0,0 STARLINK-4527,1 53436U 22097BA  23173.44255614  .00001757  00000-0  12846-3 0  9992,2 53436  53.2150 233.6850 0000929  87.4409 272.6690 15.08840182 48661,6917.88,95.438,540.388,539.102,0.0
53436.0,STARLINK-4527,PAYLOAD,2023-06-23 08:52:41,15.08837418,9.15e-05,53.2159,229.5211,90.2032,269.9065,3.0028e-05,1.9e-06,0.0,0 STARLINK-4527,1 53436U 22097BA  23174.36991994  .00000190  00000-0  30028-4 0  9995,2 53436  53.2159 229.5211 0000915  90.2032 269.9065 15.08837418 48803,6917.888,95.438,540.386,539.12,0.0
53436.0,STARLINK-4527,PAYLOAD,2023-06-24 10:18:51,15.08840403,0.0001011,53.2159,224.7643,90.5823,269.5285,0.00013027,1.786e-05,0.0,0 STARLINK-4527,1 53436U 22097BA  23175.42975775  .00001786  00000-0  13027-3 0  9993,2 53436  53.2159 224.7643 0001011  90.5823 269.5285 15.08840403 48963,6917.879,95.438,540.444,539.045,0.0
